{
  "norad_id": 50181,
  "name": "STARLINK-3285",
  "history": [
    {
      "epoch": "2026-03-28T14:45:55.233504Z",
      "apogee_km": 540.6824501397723,
      "perigee_km": 538.7454518734894,
      "latitude_deg": 4.043302484793431e-05,
      "longitude_deg": 116.65856357395975,
      "height_km": 540.6349033487853,
      "semi_major_axis_km": 6917.850951006631,
      "eccentricity": 0.00014,
      "inclination_deg": 53.2161,
      "raan_deg": 164.1718,
      "arg_perigee_deg": 91.5053,
      "mean_anomaly_deg": 268.61,
      "mean_motion_rev_day": 15.08849631
    }
  ]
}