{"fetched_at":"2026-03-29T16:36:15Z","count":15609,"tles":[{"name":"STARLINK-3285","line1":"1 50181U 21125AB  26087.61522261 -.00001265  00000+0 -61375-4 0  9995","line2":"2 50181  53.2161 164.1718 0001400  91.5053 268.6100 15.08849631239463","category":"Starlink"}]}